{
    "links": {
        "self": "http://www.neowsapp.com/rest/v1/neo/54016196?api_key=iIulBulltgU6a56xZRHN4H3l9WmuAYTsLGpBGhQ2"
    },
    "id": "54016196",
    "neo_reference_id": "54016196",
    "name": "(2020 FE)",
    "designation": "2020 FE",
    "nasa_jpl_url": "http://ssd.jpl.nasa.gov/sbdb.cgi?sstr=54016196",
    "absolute_magnitude_h": 22.364,
    "estimated_diameter": {
        "kilometers": {
            "estimated_diameter_min": 0.0894859755,
            "estimated_diameter_max": 0.2000967242
        },
        "meters": {
            "estimated_diameter_min": 89.4859754672,
            "estimated_diameter_max": 200.0967241775
        },
        "miles": {
            "estimated_diameter_min": 0.0556039901,
            "estimated_diameter_max": 0.1243343016
        },
        "feet": {
            "estimated_diameter_min": 293.5891677517,
            "estimated_diameter_max": 656.4853365505
        }
    },
    "is_potentially_hazardous_asteroid": false,
    "close_approach_data": [
        {
            "close_approach_date": "2020-04-05",
            "close_approach_date_full": "2020-Apr-05 16:03",
            "epoch_date_close_approach": 1586102580000,
            "relative_velocity": {
                "kilometers_per_second": "19.0534111159",
                "kilometers_per_hour": "68592.2800173246",
                "miles_per_hour": "42620.5753252093"
            },
            "miss_distance": {
                "astronomical": "0.1117731627",
                "lunar": "43.4797602903",
                "kilometers": "16721027.063083449",
                "miles": "10389964.4279476362"
            },
            "orbiting_body": "Earth"
        }
    ],
    "orbital_data": {
        "orbit_id": "8",
        "orbit_determination_date": "2020-04-01 05:54:07",
        "first_observation_date": "2020-03-14",
        "last_observation_date": "2020-03-31",
        "data_arc_in_days": 17,
        "observations_used": 52,
        "orbit_uncertainty": "8",
        "minimum_orbit_intersection": ".00488565",
        "jupiter_tisserand_invariant": "3.274",
        "epoch_osculation": "2458928.5",
        "eccentricity": ".7344972786825745",
        "semi_major_axis": "2.170805971595704",
        "inclination": ".411204846955814",
        "ascending_node_longitude": "145.976265524525",
        "orbital_period": "1168.234259777277",
        "perihelion_distance": ".5763548929107772",
        "perihelion_argument": "133.0725741652042",
        "aphelion_distance": "3.765257050280631",
        "perihelion_time": "2458990.568291200228",
        "mean_anomaly": "340.8731984659121",
        "mean_motion": ".3081573725364241",
        "equinox": "J2000",
        "orbit_class": {
            "orbit_class_type": "APO",
            "orbit_class_description": "Near-Earth asteroid orbits which cross the Earth’s orbit similar to that of 1862 Apollo",
            "orbit_class_range": "a (semi-major axis) > 1.0 AU; q (perihelion) < 1.017 AU"
        }
    },
    "is_sentry_object": false
}